{
"type": "FeatureCollection",
"crs": { "type": "name", "properties": { "name": "urn:ogc:def:crs:OGC:1.3:CRS84" } },
"features": [
{ "type": "Feature", "properties": { "Name": "3" }, "geometry": { "type": "MultiPolygon", "coordinates": [ [ [ [ 81.09844, 28.70562, 0.0 ], [ 81.05233, 28.73266, 0.0 ], [ 81.03132, 28.74209, 0.0 ], [ 81.00748, 28.75009, 0.0 ], [ 80.99332, 28.75575, 0.0 ], [ 80.91687, 28.78876, 0.0 ], [ 80.88276, 28.81094, 0.0 ], [ 80.87341, 28.81097, 0.0 ], [ 80.85482, 28.79797, 0.0 ], [ 80.84629, 28.78771, 0.0 ], [ 80.83706, 28.78338, 0.0 ], [ 80.82261, 28.78949, 0.0 ], [ 80.8139, 28.79433, 0.0 ], [ 80.80021, 28.81007, 0.0 ], [ 80.79048, 28.80528, 0.0 ], [ 80.78108, 28.80735, 0.0 ], [ 80.77057, 28.81147, 0.0 ], [ 80.7604, 28.81285, 0.0 ], [ 80.75171, 28.8083, 0.0 ], [ 80.73906, 28.80596, 0.0 ], [ 80.72723, 28.81073, 0.0 ], [ 80.70313, 28.8269, 0.0 ], [ 80.67623, 28.83202, 0.0 ], [ 80.65423, 28.84685, 0.0 ], [ 80.63603, 28.84757, 0.0 ], [ 80.62766, 28.84097, 0.0 ], [ 80.62, 28.83666, 0.0 ], [ 80.6104, 28.83644, 0.0 ], [ 80.59599, 28.84069, 0.0 ], [ 80.58461, 28.83904, 0.0 ], [ 80.57611, 28.84548, 0.0 ], [ 80.56111, 28.86001, 0.0 ], [ 80.55498, 28.8649, 0.0 ], [ 80.53912, 28.87391, 0.0 ], [ 80.5327, 28.87971, 0.0 ], [ 80.5224, 28.89343, 0.0 ], [ 80.5104, 28.90298, 0.0 ], [ 80.48272, 28.91558, 0.0 ], [ 80.47473, 28.9218, 0.0 ], [ 80.46877, 28.92944, 0.0 ], [ 80.46644, 28.93694, 0.0 ], [ 80.45371, 28.9451, 0.0 ], [ 80.445, 28.94099, 0.0 ], [ 80.43365, 28.93841, 0.0 ], [ 80.42719, 28.94535, 0.0 ], [ 80.42118, 28.95436, 0.0 ], [ 80.41806, 28.96229, 0.0 ], [ 80.40909, 28.9742, 0.0 ], [ 80.39485, 28.98025, 0.0 ], [ 80.38319, 28.98706, 0.0 ], [ 80.37268, 28.99045, 0.0 ], [ 80.36148, 28.99109, 0.0 ], [ 80.34573, 28.99548, 0.0 ], [ 80.33383, 29.00159, 0.0 ], [ 80.31647, 29.00733, 0.0 ], [ 80.29843, 29.01029, 0.0 ], [ 80.28427, 29.00626, 0.0 ], [ 80.27222, 29.00159, 0.0 ], [ 80.24217, 28.99852, 0.0 ], [ 80.22555, 28.99785, 0.0 ], [ 80.19491, 29.00435, 0.0 ], [ 80.18271, 29.01135, 0.0 ], [ 80.17303, 29.02047, 0.0 ], [ 80.16674, 29.02922, 0.0 ], [ 80.16193, 29.04009, 0.0 ], [ 80.15952, 29.0494, 0.0 ], [ 80.15919, 29.05877, 0.0 ], [ 80.15952, 29.08602, 0.0 ], [ 80.16044, 29.09658, 0.0 ], [ 80.15934, 29.1057, 0.0 ], [ 80.15689, 29.11202, 0.0 ], [ 80.16461, 29.11792, 0.0 ], [ 80.16689, 29.12523, 0.0 ], [ 80.16945, 29.12685, 0.0 ], [ 80.17486, 29.12695, 0.0 ], [ 80.17806, 29.12875, 0.0 ], [ 80.18144, 29.1356, 0.0 ], [ 80.18455, 29.13752, 0.0 ], [ 80.19421, 29.13188, 0.0 ], [ 80.20339, 29.12955, 0.0 ], [ 80.20576, 29.12523, 0.0 ], [ 80.20967, 29.12206, 0.0 ], [ 80.213, 29.12217, 0.0 ], [ 80.23166, 29.11868, 0.0 ], [ 80.23514, 29.11929, 0.0 ], [ 80.242, 29.12569, 0.0 ], [ 80.24428, 29.1273, 0.0 ], [ 80.2467, 29.12743, 0.0 ], [ 80.24877, 29.12918, 0.0 ], [ 80.25207, 29.13611, 0.0 ], [ 80.25404, 29.13817, 0.0 ], [ 80.25919, 29.14014, 0.0 ], [ 80.26904, 29.14077, 0.0 ], [ 80.27275, 29.14372, 0.0 ], [ 80.2718, 29.1469, 0.0 ], [ 80.26559, 29.15371, 0.0 ], [ 80.25847, 29.16554, 0.0 ], [ 80.25835, 29.17067, 0.0 ], [ 80.26057, 29.17425, 0.0 ], [ 80.30728, 29.16229, 0.0 ], [ 80.33651, 29.15276, 0.0 ], [ 80.36671, 29.14506, 0.0 ], [ 80.41973, 29.14778, 0.0 ], [ 80.44363, 29.14175, 0.0 ], [ 80.49342, 29.12399, 0.0 ], [ 80.54773, 29.0944, 0.0 ], [ 80.59384, 29.06025, 0.0 ], [ 80.62002, 29.04667, 0.0 ], [ 80.67114, 29.02566, 0.0 ], [ 80.6929, 29.01173, 0.0 ], [ 80.71527, 28.99438, 0.0 ], [ 80.75075, 28.9819, 0.0 ], [ 80.78402, 28.97394, 0.0 ], [ 80.8151, 28.96914, 0.0 ], [ 80.84576, 28.97004, 0.0 ], [ 80.88259, 28.96466, 0.0 ], [ 80.94236, 28.94738, 0.0 ], [ 80.97508, 28.93981, 0.0 ], [ 81.04037, 28.91962, 0.0 ], [ 81.08243, 28.90214, 0.0 ], [ 81.11811, 28.88956, 0.0 ], [ 81.15192, 28.87899, 0.0 ], [ 81.20029, 28.86755, 0.0 ], [ 81.23248, 28.85876, 0.0 ], [ 81.26697, 28.85139, 0.0 ], [ 81.29645, 28.84689, 0.0 ], [ 81.32256, 28.84164, 0.0 ], [ 81.35656, 28.83262, 0.0 ], [ 81.38931, 28.82105, 0.0 ], [ 81.41449, 28.81095, 0.0 ], [ 81.43484, 28.79594, 0.0 ], [ 81.45478, 28.77588, 0.0 ], [ 81.47117, 28.7514, 0.0 ], [ 81.49477, 28.70549, 0.0 ], [ 81.50146, 28.68452, 0.0 ], [ 81.51752, 28.65016, 0.0 ], [ 81.52525, 28.64043, 0.0 ], [ 81.54774, 28.61993, 0.0 ], [ 81.56478, 28.6115, 0.0 ], [ 81.57783, 28.60781, 0.0 ], [ 81.60423, 28.59814, 0.0 ], [ 81.69661, 28.56952, 0.0 ], [ 81.71993, 28.55748, 0.0 ], [ 81.73524, 28.5435, 0.0 ], [ 81.73721, 28.52197, 0.0 ], [ 81.74091, 28.5046, 0.0 ], [ 81.76505, 28.48935, 0.0 ], [ 81.79097, 28.47504, 0.0 ], [ 81.82599, 28.45857, 0.0 ], [ 81.85065, 28.44171, 0.0 ], [ 81.91195, 28.37305, 0.0 ], [ 81.93951, 28.35138, 0.0 ], [ 81.96934, 28.33182, 0.0 ], [ 81.98996, 28.3213, 0.0 ], [ 82.01586, 28.30419, 0.0 ], [ 82.0601, 28.27261, 0.0 ], [ 82.08916, 28.25002, 0.0 ], [ 82.10572, 28.23301, 0.0 ], [ 82.12895, 28.21859, 0.0 ], [ 82.15224, 28.19981, 0.0 ], [ 82.18324, 28.18387, 0.0 ], [ 82.24712, 28.16368, 0.0 ], [ 82.27404, 28.16075, 0.0 ], [ 82.30264, 28.16747, 0.0 ], [ 82.33493, 28.1694, 0.0 ], [ 82.36276, 28.15682, 0.0 ], [ 82.39582, 28.13809, 0.0 ], [ 82.42818, 28.11246, 0.0 ], [ 82.45789, 28.09093, 0.0 ], [ 82.48762, 28.06709, 0.0 ], [ 82.55054, 28.00611, 0.0 ], [ 82.56651, 27.9849, 0.0 ], [ 82.5887, 27.96097, 0.0 ], [ 82.61624, 27.94282, 0.0 ], [ 82.64292, 27.93247, 0.0 ], [ 82.66724, 27.92599, 0.0 ], [ 82.74911, 27.91783, 0.0 ], [ 82.77597, 27.91433, 0.0 ], [ 82.79995, 27.91655, 0.0 ], [ 82.82208, 27.92472, 0.0 ], [ 82.84139, 27.92943, 0.0 ], [ 82.86568, 27.9259, 0.0 ], [ 82.88745, 27.91385, 0.0 ], [ 82.90639, 27.90041, 0.0 ], [ 82.9284, 27.88906, 0.0 ], [ 82.95272, 27.87885, 0.0 ], [ 83.01083, 27.86949, 0.0 ], [ 83.09988, 27.86115, 0.0 ], [ 83.1337, 27.85531, 0.0 ], [ 83.16625, 27.84694, 0.0 ], [ 83.22901, 27.82807, 0.0 ], [ 83.25921, 27.82128, 0.0 ], [ 83.29173, 27.81562, 0.0 ], [ 83.31367, 27.81085, 0.0 ], [ 83.32219, 27.8095, 0.0 ], [ 83.33147, 27.80998, 0.0 ], [ 83.35082, 27.80657, 0.0 ], [ 83.37637, 27.80089, 0.0 ], [ 83.41275, 27.79521, 0.0 ], [ 83.4432, 27.78584, 0.0 ], [ 83.46592, 27.77277, 0.0 ], [ 83.4881, 27.76775, 0.0 ], [ 83.5206, 27.76342, 0.0 ], [ 83.55671, 27.75127, 0.0 ], [ 83.599, 27.74026, 0.0 ], [ 83.62453, 27.73705, 0.0 ], [ 83.72893, 27.72692, 0.0 ], [ 83.80317, 27.72294, 0.0 ], [ 83.82998, 27.72382, 0.0 ], [ 83.85371, 27.72678, 0.0 ], [ 83.88645, 27.72673, 0.0 ], [ 83.91738, 27.72482, 0.0 ], [ 83.96068, 27.71967, 0.0 ], [ 83.98569, 27.71824, 0.0 ], [ 84.06794, 27.718, 0.0 ], [ 84.10791, 27.71972, 0.0 ], [ 84.13887, 27.72489, 0.0 ], [ 84.19412, 27.73916, 0.0 ], [ 84.25018, 27.75732, 0.0 ], [ 84.27677, 27.76179, 0.0 ], [ 84.3121, 27.75909, 0.0 ], [ 84.34687, 27.74996, 0.0 ], [ 84.3827, 27.74495, 0.0 ], [ 84.40696, 27.74711, 0.0 ], [ 84.43126, 27.75502, 0.0 ], [ 84.45866, 27.76268, 0.0 ], [ 84.52933, 27.75879, 0.0 ], [ 84.57095, 27.73645, 0.0 ], [ 84.61199, 27.70835, 0.0 ], [ 84.64844, 27.68901, 0.0 ], [ 84.69047, 27.66132, 0.0 ], [ 84.74653, 27.61973, 0.0 ], [ 84.79106, 27.58924, 0.0 ], [ 84.83124, 27.56314, 0.0 ], [ 84.87909, 27.5342, 0.0 ], [ 84.9134, 27.51595, 0.0 ], [ 84.94723, 27.50206, 0.0 ], [ 84.99545, 27.48687, 0.0 ], [ 85.0298, 27.47502, 0.0 ], [ 85.06084, 27.46666, 0.0 ], [ 85.08747, 27.45579, 0.0 ], [ 85.1282, 27.44132, 0.0 ], [ 85.17358, 27.42863, 0.0 ], [ 85.19905, 27.42765, 0.0 ], [ 85.21631, 27.42907, 0.0 ], [ 85.24468, 27.43334, 0.0 ], [ 85.29157, 27.43668, 0.0 ], [ 85.33171, 27.43642, 0.0 ], [ 85.38171, 27.42429, 0.0 ], [ 85.41421, 27.41237, 0.0 ], [ 85.51199, 27.36598, 0.0 ], [ 85.54879, 27.35167, 0.0 ], [ 85.58258, 27.34267, 0.0 ], [ 85.60999, 27.33653, 0.0 ], [ 85.6335, 27.32814, 0.0 ], [ 85.65325, 27.32532, 0.0 ], [ 85.68031, 27.32791, 0.0 ], [ 85.72453, 27.3277, 0.0 ], [ 85.75608, 27.3233, 0.0 ], [ 85.79754, 27.31276, 0.0 ], [ 85.84481, 27.29752, 0.0 ], [ 85.90291, 27.27172, 0.0 ], [ 85.95872, 27.23604, 0.0 ], [ 86.01337, 27.19575, 0.0 ], [ 86.06441, 27.1562, 0.0 ], [ 86.14594, 27.11606, 0.0 ], [ 86.16913, 27.097, 0.0 ], [ 86.20733, 27.07282, 0.0 ], [ 86.25945, 27.0518, 0.0 ], [ 86.29155, 27.04221, 0.0 ], [ 86.31836, 27.03662, 0.0 ], [ 86.3497, 27.02748, 0.0 ], [ 86.38445, 27.01137, 0.0 ], [ 86.42877, 26.99897, 0.0 ], [ 86.46069, 26.99326, 0.0 ], [ 86.48313, 26.97829, 0.0 ], [ 86.52153, 26.94595, 0.0 ], [ 86.55836, 26.91296, 0.0 ], [ 86.60998, 26.88813, 0.0 ], [ 86.66292, 26.87478, 0.0 ], [ 86.73487, 26.87294, 0.0 ], [ 86.77884, 26.86918, 0.0 ], [ 86.86427, 26.85499, 0.0 ], [ 86.89547, 26.85333, 0.0 ], [ 87.00765, 26.87778, 0.0 ], [ 87.02377, 26.89396, 0.0 ], [ 87.05219, 26.9096, 0.0 ], [ 87.0834, 26.90767, 0.0 ], [ 87.16751, 26.88436, 0.0 ], [ 87.20395, 26.87767, 0.0 ], [ 87.29053, 26.85306, 0.0 ], [ 87.33778, 26.84075, 0.0 ], [ 87.38533, 26.83003, 0.0 ], [ 87.42744, 26.81783, 0.0 ], [ 87.47695, 26.80495, 0.0 ], [ 87.5467, 26.79285, 0.0 ], [ 87.57723, 26.79452, 0.0 ], [ 87.60743, 26.80125, 0.0 ], [ 87.67573, 26.82736, 0.0 ], [ 87.71154, 26.83298, 0.0 ], [ 87.75549, 26.82983, 0.0 ], [ 87.80182, 26.8289, 0.0 ], [ 87.84804, 26.81806, 0.0 ], [ 87.88154, 26.80299, 0.0 ], [ 87.90645, 26.79808, 0.0 ], [ 87.92589, 26.79747, 0.0 ], [ 87.96314, 26.79379, 0.0 ], [ 88.06916, 26.78697, 0.0 ], [ 88.10406, 26.78907, 0.0 ], [ 88.13549, 26.78736, 0.0 ], [ 88.17728, 26.77949, 0.0 ], [ 88.18584, 26.77963, 0.0 ], [ 88.18785, 26.76989, 0.0 ], [ 88.18711, 26.76067, 0.0 ], [ 88.18573, 26.757, 0.0 ], [ 88.18699, 26.75053, 0.0 ], [ 88.18582, 26.74059, 0.0 ], [ 88.18624, 26.73871, 0.0 ], [ 88.18438, 26.73453, 0.0 ], [ 88.18466, 26.7312, 0.0 ], [ 88.18218, 26.72772, 0.0 ], [ 88.1819, 26.7197, 0.0 ], [ 88.17716, 26.71128, 0.0 ], [ 88.17291, 26.7083, 0.0 ], [ 88.16958, 26.70215, 0.0 ], [ 88.1719, 26.71205, 0.0 ], [ 88.1688, 26.72435, 0.0 ], [ 88.15968, 26.72648, 0.0 ], [ 88.15021, 26.72012, 0.0 ], [ 88.14787, 26.70638, 0.0 ], [ 88.14044, 26.68706, 0.0 ], [ 88.13181, 26.68849, 0.0 ], [ 88.12594, 26.6827, 0.0 ], [ 88.12587, 26.66797, 0.0 ], [ 88.12743, 26.65594, 0.0 ], [ 88.11748, 26.64338, 0.0 ], [ 88.10285, 26.64223, 0.0 ], [ 88.09794, 26.6539, 0.0 ], [ 88.0977, 26.66727, 0.0 ], [ 88.10445, 26.70848, 0.0 ], [ 88.10358, 26.71887, 0.0 ], [ 88.09278, 26.7305, 0.0 ], [ 88.07973, 26.73714, 0.0 ], [ 88.0599, 26.74053, 0.0 ], [ 88.04409, 26.74196, 0.0 ], [ 88.02321, 26.73848, 0.0 ], [ 88.00228, 26.73316, 0.0 ], [ 87.9838, 26.72522, 0.0 ], [ 87.96861, 26.70959, 0.0 ], [ 87.95612, 26.69087, 0.0 ], [ 87.94778, 26.67363, 0.0 ], [ 87.94154, 26.66416, 0.0 ], [ 87.93086, 26.65919, 0.0 ], [ 87.91696, 26.65686, 0.0 ], [ 87.90412, 26.65565, 0.0 ], [ 87.88624, 26.6562, 0.0 ], [ 87.86815, 26.65814, 0.0 ], [ 87.84642, 26.66525, 0.0 ], [ 87.77214, 26.70455, 0.0 ], [ 87.752, 26.71345, 0.0 ], [ 87.72624, 26.737, 0.0 ], [ 87.68384, 26.76081, 0.0 ], [ 87.6679, 26.76635, 0.0 ], [ 87.64235, 26.76778, 0.0 ], [ 87.60416, 26.75922, 0.0 ], [ 87.56962, 26.75261, 0.0 ], [ 87.55171, 26.75289, 0.0 ], [ 87.53875, 26.75556, 0.0 ], [ 87.52246, 26.75095, 0.0 ], [ 87.51512, 26.74587, 0.0 ], [ 87.50447, 26.74156, 0.0 ], [ 87.48928, 26.739, 0.0 ], [ 87.46492, 26.7452, 0.0 ], [ 87.44933, 26.76083, 0.0 ], [ 87.43055, 26.77332, 0.0 ], [ 87.41458, 26.77053, 0.0 ], [ 87.40288, 26.76509, 0.0 ], [ 87.37778, 26.75726, 0.0 ], [ 87.35767, 26.7608, 0.0 ], [ 87.34551, 26.78001, 0.0 ], [ 87.33727, 26.80187, 0.0 ], [ 87.32306, 26.81375, 0.0 ], [ 87.29487, 26.82118, 0.0 ], [ 87.26789, 26.81867, 0.0 ], [ 87.23689, 26.81029, 0.0 ], [ 87.20625, 26.80532, 0.0 ], [ 87.17813, 26.81481, 0.0 ], [ 87.1666, 26.82293, 0.0 ], [ 87.15032, 26.82657, 0.0 ], [ 87.12734, 26.82876, 0.0 ], [ 87.09881, 26.81729, 0.0 ], [ 87.0792, 26.79591, 0.0 ], [ 87.06421, 26.76636, 0.0 ], [ 87.0528, 26.75306, 0.0 ], [ 87.03116, 26.74025, 0.0 ], [ 86.9868, 26.74594, 0.0 ], [ 86.96203, 26.74793, 0.0 ], [ 86.92678, 26.70688, 0.0 ], [ 86.91284, 26.68512, 0.0 ], [ 86.86644, 26.64617, 0.0 ], [ 86.84255, 26.64259, 0.0 ], [ 86.81196, 26.64583, 0.0 ], [ 86.79531, 26.63586, 0.0 ], [ 86.77372, 26.63176, 0.0 ], [ 86.6361, 26.63899, 0.0 ], [ 86.60224, 26.65446, 0.0 ], [ 86.58409, 26.67396, 0.0 ], [ 86.58122, 26.69128, 0.0 ], [ 86.60038, 26.73875, 0.0 ], [ 86.60011, 26.75739, 0.0 ], [ 86.58982, 26.7652, 0.0 ], [ 86.57643, 26.77194, 0.0 ], [ 86.51149, 26.78483, 0.0 ], [ 86.47299, 26.79116, 0.0 ], [ 86.4393, 26.80544, 0.0 ], [ 86.41541, 26.82319, 0.0 ], [ 86.3904, 26.83704, 0.0 ], [ 86.35826, 26.84251, 0.0 ], [ 86.30889, 26.84511, 0.0 ], [ 86.26671, 26.84846, 0.0 ], [ 86.22657, 26.86258, 0.0 ], [ 86.20103, 26.8771, 0.0 ], [ 86.1658, 26.89387, 0.0 ], [ 86.14056, 26.89939, 0.0 ], [ 86.11753, 26.90097, 0.0 ], [ 86.05345, 26.91156, 0.0 ], [ 86.01041, 26.92451, 0.0 ], [ 85.98048, 26.93906, 0.0 ], [ 85.95914, 26.9484, 0.0 ], [ 85.91257, 26.97727, 0.0 ], [ 85.89487, 27.00218, 0.0 ], [ 85.88772, 27.02899, 0.0 ], [ 85.86898, 27.04126, 0.0 ], [ 85.83372, 27.04805, 0.0 ], [ 85.79346, 27.0625, 0.0 ], [ 85.74673, 27.07428, 0.0 ], [ 85.69177, 27.08524, 0.0 ], [ 85.64185, 27.09175, 0.0 ], [ 85.57849, 27.09358, 0.0 ], [ 85.53662, 27.10591, 0.0 ], [ 85.49911, 27.11908, 0.0 ], [ 85.43262, 27.14966, 0.0 ], [ 85.38585, 27.16338, 0.0 ], [ 85.36136, 27.17359, 0.0 ], [ 85.33735, 27.18194, 0.0 ], [ 85.2992, 27.18932, 0.0 ], [ 85.25814, 27.1912, 0.0 ], [ 85.20976, 27.20212, 0.0 ], [ 85.18699, 27.20837, 0.0 ], [ 85.16583, 27.21942, 0.0 ], [ 85.12089, 27.25901, 0.0 ], [ 85.09018, 27.26832, 0.0 ], [ 85.04965, 27.2738, 0.0 ], [ 84.96259, 27.27768, 0.0 ], [ 84.92684, 27.27504, 0.0 ], [ 84.89371, 27.27604, 0.0 ], [ 84.86861, 27.28364, 0.0 ], [ 84.84322, 27.28778, 0.0 ], [ 84.80057, 27.28884, 0.0 ], [ 84.76642, 27.29097, 0.0 ], [ 84.72587, 27.29613, 0.0 ], [ 84.69868, 27.30072, 0.0 ], [ 84.6692, 27.30877, 0.0 ], [ 84.64457, 27.31287, 0.0 ], [ 84.64013, 27.31231, 0.0 ], [ 84.63804, 27.31403, 0.0 ], [ 84.62223, 27.3365, 0.0 ], [ 84.61869, 27.33799, 0.0 ], [ 84.60958, 27.33683, 0.0 ], [ 84.60762, 27.33558, 0.0 ], [ 84.60146, 27.33889, 0.0 ], [ 84.58635, 27.3415, 0.0 ], [ 84.58476, 27.34253, 0.0 ], [ 84.58119, 27.3429, 0.0 ], [ 84.5649, 27.34773, 0.0 ], [ 84.55336, 27.34929, 0.0 ], [ 84.54756, 27.34881, 0.0 ], [ 84.53816, 27.35064, 0.0 ], [ 84.53346, 27.35031, 0.0 ], [ 84.52288, 27.35248, 0.0 ], [ 84.52066, 27.35385, 0.0 ], [ 84.51801, 27.35281, 0.0 ], [ 84.51527, 27.35296, 0.0 ], [ 84.51254, 27.35339, 0.0 ], [ 84.51025, 27.35473, 0.0 ], [ 84.50359, 27.35486, 0.0 ], [ 84.50228, 27.35596, 0.0 ], [ 84.49873, 27.35601, 0.0 ], [ 84.48575, 27.35872, 0.0 ], [ 84.47629, 27.36269, 0.0 ], [ 84.47531, 27.36238, 0.0 ], [ 84.47295, 27.35885, 0.0 ], [ 84.47205, 27.3557, 0.0 ], [ 84.46948, 27.35537, 0.0 ], [ 84.46598, 27.35695, 0.0 ], [ 84.46462, 27.35992, 0.0 ], [ 84.46172, 27.35953, 0.0 ], [ 84.45859, 27.36103, 0.0 ], [ 84.45761, 27.3623, 0.0 ], [ 84.44632, 27.36392, 0.0 ], [ 84.44454, 27.36532, 0.0 ], [ 84.44375, 27.36879, 0.0 ], [ 84.44105, 27.37039, 0.0 ], [ 84.43519, 27.36973, 0.0 ], [ 84.43057, 27.37134, 0.0 ], [ 84.42797, 27.37105, 0.0 ], [ 84.42411, 27.37217, 0.0 ], [ 84.42021, 27.37006, 0.0 ], [ 84.4139, 27.37097, 0.0 ], [ 84.41023, 27.36869, 0.0 ], [ 84.40595, 27.37057, 0.0 ], [ 84.40041, 27.37038, 0.0 ], [ 84.39867, 27.36963, 0.0 ], [ 84.39691, 27.37055, 0.0 ], [ 84.39171, 27.36836, 0.0 ], [ 84.38748, 27.37253, 0.0 ], [ 84.37271, 27.37682, 0.0 ], [ 84.37156, 27.37546, 0.0 ], [ 84.36116, 27.37405, 0.0 ], [ 84.35601, 27.37363, 0.0 ], [ 84.34793, 27.37437, 0.0 ], [ 84.33828, 27.37788, 0.0 ], [ 84.33246, 27.37758, 0.0 ], [ 84.32851, 27.38042, 0.0 ], [ 84.32388, 27.38057, 0.0 ], [ 84.32214, 27.38171, 0.0 ], [ 84.31741, 27.38233, 0.0 ], [ 84.31365, 27.38541, 0.0 ], [ 84.31045, 27.38692, 0.0 ], [ 84.30453, 27.38807, 0.0 ], [ 84.30043, 27.39061, 0.0 ], [ 84.29753, 27.38902, 0.0 ], [ 84.29526, 27.38496, 0.0 ], [ 84.29363, 27.38457, 0.0 ], [ 84.29121, 27.38546, 0.0 ], [ 84.28703, 27.39062, 0.0 ], [ 84.28527, 27.39161, 0.0 ], [ 84.28435, 27.39481, 0.0 ], [ 84.28235, 27.39671, 0.0 ], [ 84.27628, 27.39583, 0.0 ], [ 84.27541, 27.40125, 0.0 ], [ 84.2772, 27.40304, 0.0 ], [ 84.27902, 27.40687, 0.0 ], [ 84.27744, 27.40996, 0.0 ], [ 84.27803, 27.41584, 0.0 ], [ 84.27345, 27.42152, 0.0 ], [ 84.2722, 27.42602, 0.0 ], [ 84.27248, 27.429, 0.0 ], [ 84.2679, 27.43186, 0.0 ], [ 84.26591, 27.43464, 0.0 ], [ 84.26179, 27.43568, 0.0 ], [ 84.25853, 27.43894, 0.0 ], [ 84.2581, 27.44131, 0.0 ], [ 84.25935, 27.44601, 0.0 ], [ 84.25461, 27.44957, 0.0 ], [ 84.25412, 27.45226, 0.0 ], [ 84.25051, 27.45365, 0.0 ], [ 84.246, 27.45325, 0.0 ], [ 84.24399, 27.45488, 0.0 ], [ 84.23904, 27.45271, 0.0 ], [ 84.23505, 27.45397, 0.0 ], [ 84.23156, 27.45649, 0.0 ], [ 84.22687, 27.45123, 0.0 ], [ 84.22391, 27.45058, 0.0 ], [ 84.2208, 27.44784, 0.0 ], [ 84.22086, 27.44296, 0.0 ], [ 84.21941, 27.4406, 0.0 ], [ 84.21638, 27.44173, 0.0 ], [ 84.21241, 27.44142, 0.0 ], [ 84.20842, 27.44279, 0.0 ], [ 84.20649, 27.44679, 0.0 ], [ 84.20819, 27.4531, 0.0 ], [ 84.20723, 27.45441, 0.0 ], [ 84.20766, 27.45647, 0.0 ], [ 84.20375, 27.45978, 0.0 ], [ 84.20871, 27.46555, 0.0 ], [ 84.20569, 27.46987, 0.0 ], [ 84.20156, 27.4709, 0.0 ], [ 84.19947, 27.47229, 0.0 ], [ 84.19571, 27.47213, 0.0 ], [ 84.19435, 27.47345, 0.0 ], [ 84.191, 27.46943, 0.0 ], [ 84.18859, 27.4723, 0.0 ], [ 84.18395, 27.47266, 0.0 ], [ 84.17978, 27.47496, 0.0 ], [ 84.17872, 27.47411, 0.0 ], [ 84.17595, 27.47401, 0.0 ], [ 84.17362, 27.47561, 0.0 ], [ 84.17144, 27.47588, 0.0 ], [ 84.17097, 27.47929, 0.0 ], [ 84.1674, 27.47984, 0.0 ], [ 84.16703, 27.48201, 0.0 ], [ 84.1635, 27.48401, 0.0 ], [ 84.15971, 27.48478, 0.0 ], [ 84.1576, 27.48382, 0.0 ], [ 84.15357, 27.48423, 0.0 ], [ 84.1518, 27.48624, 0.0 ], [ 84.14878, 27.48613, 0.0 ], [ 84.1487, 27.4892, 0.0 ], [ 84.14528, 27.49307, 0.0 ], [ 84.1461, 27.49569, 0.0 ], [ 84.14429, 27.49711, 0.0 ], [ 84.14982, 27.50112, 0.0 ], [ 84.14822, 27.50322, 0.0 ], [ 84.14928, 27.50454, 0.0 ], [ 84.14857, 27.50596, 0.0 ], [ 84.14948, 27.50715, 0.0 ], [ 84.14916, 27.50954, 0.0 ], [ 84.15115, 27.51037, 0.0 ], [ 84.14976, 27.51269, 0.0 ], [ 84.15097, 27.51663, 0.0 ], [ 84.14712, 27.51746, 0.0 ], [ 84.14568, 27.51901, 0.0 ], [ 84.14358, 27.51729, 0.0 ], [ 84.14148, 27.51814, 0.0 ], [ 84.1382, 27.51783, 0.0 ], [ 84.13688, 27.51631, 0.0 ], [ 84.1346, 27.51484, 0.0 ], [ 84.13357, 27.51517, 0.0 ], [ 84.1297, 27.51211, 0.0 ], [ 84.12405, 27.51126, 0.0 ], [ 84.1174, 27.51387, 0.0 ], [ 84.11652, 27.51946, 0.0 ], [ 84.11373, 27.51949, 0.0 ], [ 84.11253, 27.52026, 0.0 ], [ 84.11078, 27.51962, 0.0 ], [ 84.10852, 27.52194, 0.0 ], [ 84.10503, 27.52102, 0.0 ], [ 84.10068, 27.51794, 0.0 ], [ 84.09772, 27.51742, 0.0 ], [ 84.09751, 27.51572, 0.0 ], [ 84.09888, 27.51374, 0.0 ], [ 84.09962, 27.51061, 0.0 ], [ 84.0984, 27.50828, 0.0 ], [ 84.0986, 27.50578, 0.0 ], [ 84.09707, 27.50522, 0.0 ], [ 84.09857, 27.50271, 0.0 ], [ 84.09533, 27.48978, 0.0 ], [ 84.09359, 27.48883, 0.0 ], [ 84.0913, 27.48905, 0.0 ], [ 84.09076, 27.48629, 0.0 ], [ 84.08952, 27.48649, 0.0 ], [ 84.0839, 27.48345, 0.0 ], [ 84.07801, 27.48424, 0.0 ], [ 84.07269, 27.48071, 0.0 ], [ 84.07153, 27.4808, 0.0 ], [ 84.07135, 27.48183, 0.0 ], [ 84.07062, 27.48194, 0.0 ], [ 84.06893, 27.47956, 0.0 ], [ 84.06807, 27.47645, 0.0 ], [ 84.06831, 27.47362, 0.0 ], [ 84.06714, 27.47247, 0.0 ], [ 84.06656, 27.46984, 0.0 ], [ 84.06195, 27.46714, 0.0 ], [ 84.06205, 27.46542, 0.0 ], [ 84.06066, 27.46217, 0.0 ], [ 84.0584, 27.46141, 0.0 ], [ 84.05919, 27.45865, 0.0 ], [ 84.06149, 27.45719, 0.0 ], [ 84.06163, 27.4561, 0.0 ], [ 84.06083, 27.45487, 0.0 ], [ 84.05829, 27.45392, 0.0 ], [ 84.05837, 27.45226, 0.0 ], [ 84.05742, 27.45119, 0.0 ], [ 84.05456, 27.44959, 0.0 ], [ 84.05195, 27.44294, 0.0 ], [ 84.04353, 27.44354, 0.0 ], [ 84.04317, 27.44253, 0.0 ], [ 84.03876, 27.4429, 0.0 ], [ 84.0355, 27.44106, 0.0 ], [ 84.03158, 27.44183, 0.0 ], [ 84.0309, 27.4392, 0.0 ], [ 84.02771, 27.43997, 0.0 ], [ 84.02577, 27.43864, 0.0 ], [ 84.02734, 27.43567, 0.0 ], [ 84.02708, 27.43383, 0.0 ], [ 84.02536, 27.43417, 0.0 ], [ 84.02259, 27.43325, 0.0 ], [ 84.0185, 27.43625, 0.0 ], [ 84.01671, 27.43485, 0.0 ], [ 84.01566, 27.43496, 0.0 ], [ 84.01179, 27.43905, 0.0 ], [ 84.00911, 27.43783, 0.0 ], [ 84.00748, 27.4407, 0.0 ], [ 84.00515, 27.43988, 0.0 ], [ 84.00589, 27.44151, 0.0 ], [ 84.00511, 27.44243, 0.0 ], [ 84.00368, 27.44152, 0.0 ], [ 84.00226, 27.44237, 0.0 ], [ 84.00157, 27.44053, 0.0 ], [ 83.99867, 27.44234, 0.0 ], [ 83.998, 27.44084, 0.0 ], [ 83.99692, 27.44388, 0.0 ], [ 83.99726, 27.44562, 0.0 ], [ 83.99604, 27.44636, 0.0 ], [ 83.99453, 27.44628, 0.0 ], [ 83.9915, 27.44438, 0.0 ], [ 83.98387, 27.44406, 0.0 ], [ 83.97744, 27.43951, 0.0 ], [ 83.97768, 27.44265, 0.0 ], [ 83.97486, 27.44312, 0.0 ], [ 83.97251, 27.44227, 0.0 ], [ 83.96959, 27.44491, 0.0 ], [ 83.96597, 27.44679, 0.0 ], [ 83.96465, 27.44644, 0.0 ], [ 83.96246, 27.44416, 0.0 ], [ 83.96021, 27.44446, 0.0 ], [ 83.95769, 27.44327, 0.0 ], [ 83.94581, 27.44136, 0.0 ], [ 83.94306, 27.44369, 0.0 ], [ 83.9441, 27.44617, 0.0 ], [ 83.94206, 27.44793, 0.0 ], [ 83.93922, 27.44907, 0.0 ], [ 83.9357, 27.44847, 0.0 ], [ 83.93108, 27.44977, 0.0 ], [ 83.91573, 27.44245, 0.0 ], [ 83.90686, 27.43974, 0.0 ], [ 83.80809, 27.52509, 0.0 ], [ 83.78109, 27.55062, 0.0 ], [ 83.75332, 27.57524, 0.0 ], [ 83.72269, 27.59641, 0.0 ], [ 83.69334, 27.61113, 0.0 ], [ 83.66939, 27.61573, 0.0 ], [ 83.6506, 27.61482, 0.0 ], [ 83.63051, 27.62378, 0.0 ], [ 83.59804, 27.6456, 0.0 ], [ 83.57897, 27.65525, 0.0 ], [ 83.55244, 27.66121, 0.0 ], [ 83.53106, 27.66097, 0.0 ], [ 83.50914, 27.67174, 0.0 ], [ 83.48594, 27.68183, 0.0 ], [ 83.47049, 27.67906, 0.0 ], [ 83.45865, 27.67513, 0.0 ], [ 83.44601, 27.68316, 0.0 ], [ 83.43416, 27.68292, 0.0 ], [ 83.41177, 27.67185, 0.0 ], [ 83.39348, 27.67458, 0.0 ], [ 83.36509, 27.69175, 0.0 ], [ 83.34241, 27.69378, 0.0 ], [ 83.31355, 27.69762, 0.0 ], [ 83.28775, 27.70606, 0.0 ], [ 83.26606, 27.71817, 0.0 ], [ 83.24823, 27.7319, 0.0 ], [ 83.23404, 27.73622, 0.0 ], [ 83.22037, 27.73848, 0.0 ], [ 83.20976, 27.74786, 0.0 ], [ 83.20149, 27.75357, 0.0 ], [ 83.1881, 27.751, 0.0 ], [ 83.17579, 27.73879, 0.0 ], [ 83.16704, 27.73509, 0.0 ], [ 83.15286, 27.73665, 0.0 ], [ 83.13451, 27.7476, 0.0 ], [ 83.12393, 27.75009, 0.0 ], [ 83.11285, 27.74959, 0.0 ], [ 83.10228, 27.7507, 0.0 ], [ 83.09196, 27.75295, 0.0 ], [ 83.06001, 27.75305, 0.0 ], [ 83.0255, 27.74808, 0.0 ], [ 82.99946, 27.7514, 0.0 ], [ 82.97833, 27.75154, 0.0 ], [ 82.95129, 27.74841, 0.0 ], [ 82.90239, 27.74036, 0.0 ], [ 82.81669, 27.72931, 0.0 ], [ 82.74471, 27.71302, 0.0 ], [ 82.7226, 27.70874, 0.0 ], [ 82.70681, 27.70093, 0.0 ], [ 82.70512, 27.70644, 0.0 ], [ 82.70791, 27.72207, 0.0 ], [ 82.70506, 27.71675, 0.0 ], [ 82.70186, 27.71654, 0.0 ], [ 82.69915, 27.72216, 0.0 ], [ 82.69519, 27.71856, 0.0 ], [ 82.68916, 27.7153, 0.0 ], [ 82.68059, 27.71394, 0.0 ], [ 82.67157, 27.71443, 0.0 ], [ 82.66641, 27.71584, 0.0 ], [ 82.66411, 27.72227, 0.0 ], [ 82.65514, 27.71349, 0.0 ], [ 82.63842, 27.70929, 0.0 ], [ 82.62773, 27.7117, 0.0 ], [ 82.62745, 27.70936, 0.0 ], [ 82.62306, 27.7052, 0.0 ], [ 82.61875, 27.70244, 0.0 ], [ 82.60495, 27.70614, 0.0 ], [ 82.6, 27.70441, 0.0 ], [ 82.59359, 27.69712, 0.0 ], [ 82.59107, 27.69705, 0.0 ], [ 82.58483, 27.69879, 0.0 ], [ 82.56181, 27.69197, 0.0 ], [ 82.55444, 27.68869, 0.0 ], [ 82.54938, 27.68902, 0.0 ], [ 82.54106, 27.68591, 0.0 ], [ 82.53864, 27.68783, 0.0 ], [ 82.53087, 27.68676, 0.0 ], [ 82.51616, 27.69061, 0.0 ], [ 82.50021, 27.6852, 0.0 ], [ 82.49239, 27.68438, 0.0 ], [ 82.48997, 27.68142, 0.0 ], [ 82.48392, 27.68098, 0.0 ], [ 82.48182, 27.683, 0.0 ], [ 82.47313, 27.67669, 0.0 ], [ 82.44865, 27.6789, 0.0 ], [ 82.43697, 27.68528, 0.0 ], [ 82.4272, 27.68847, 0.0 ], [ 82.41279, 27.69842, 0.0 ], [ 82.40154, 27.70307, 0.0 ], [ 82.39287, 27.71004, 0.0 ], [ 82.38227, 27.72053, 0.0 ], [ 82.36708, 27.74286, 0.0 ], [ 82.3365, 27.75501, 0.0 ], [ 82.30381, 27.77281, 0.0 ], [ 82.25269, 27.81034, 0.0 ], [ 82.2304, 27.82099, 0.0 ], [ 82.20819, 27.84332, 0.0 ], [ 82.17698, 27.85493, 0.0 ], [ 82.15392, 27.8664, 0.0 ], [ 82.14993, 27.85813, 0.0 ], [ 82.13935, 27.86013, 0.0 ], [ 82.12327, 27.86523, 0.0 ], [ 82.11414, 27.87777, 0.0 ], [ 82.10083, 27.88633, 0.0 ], [ 82.09132, 27.89487, 0.0 ], [ 82.09001, 27.89961, 0.0 ], [ 82.08047, 27.90932, 0.0 ], [ 82.07088, 27.92284, 0.0 ], [ 82.06242, 27.92192, 0.0 ], [ 82.04503, 27.9247, 0.0 ], [ 82.02546, 27.9253, 0.0 ], [ 81.9911, 27.92942, 0.0 ], [ 81.97766, 27.92873, 0.0 ], [ 81.96814, 27.92917, 0.0 ], [ 81.96164, 27.92337, 0.0 ], [ 81.95924, 27.91661, 0.0 ], [ 81.95684, 27.91478, 0.0 ], [ 81.93204, 27.91754, 0.0 ], [ 81.91504, 27.91618, 0.0 ], [ 81.88949, 27.91792, 0.0 ], [ 81.86646, 27.92312, 0.0 ], [ 81.84204, 27.93381, 0.0 ], [ 81.82301, 27.94617, 0.0 ], [ 81.80963, 27.95929, 0.0 ], [ 81.79665, 27.97861, 0.0 ], [ 81.78602, 27.99589, 0.0 ], [ 81.77796, 28.0139, 0.0 ], [ 81.76872, 28.03969, 0.0 ], [ 81.76648, 28.04952, 0.0 ], [ 81.77323, 28.0613, 0.0 ], [ 81.7903, 28.05971, 0.0 ], [ 81.80797, 28.05284, 0.0 ], [ 81.85399, 28.01883, 0.0 ], [ 81.8684, 28.00572, 0.0 ], [ 81.89574, 28.00653, 0.0 ], [ 81.90818, 28.01839, 0.0 ], [ 81.9259, 28.0239, 0.0 ], [ 81.93347, 28.03385, 0.0 ], [ 81.93889, 28.04929, 0.0 ], [ 81.9532, 28.05841, 0.0 ], [ 81.9663, 28.06271, 0.0 ], [ 81.96927, 28.07054, 0.0 ], [ 81.96491, 28.08403, 0.0 ], [ 81.94892, 28.0985, 0.0 ], [ 81.92987, 28.11088, 0.0 ], [ 81.91048, 28.12714, 0.0 ], [ 81.88855, 28.14062, 0.0 ], [ 81.85162, 28.15503, 0.0 ], [ 81.83991, 28.17437, 0.0 ], [ 81.83754, 28.19131, 0.0 ], [ 81.82543, 28.20376, 0.0 ], [ 81.80793, 28.21384, 0.0 ], [ 81.79547, 28.2311, 0.0 ], [ 81.77714, 28.24368, 0.0 ], [ 81.76087, 28.25653, 0.0 ], [ 81.74179, 28.26749, 0.0 ], [ 81.72722, 28.27209, 0.0 ], [ 81.71115, 28.27416, 0.0 ], [ 81.6988, 28.28406, 0.0 ], [ 81.68733, 28.28894, 0.0 ], [ 81.67073, 28.29121, 0.0 ], [ 81.65578, 28.30199, 0.0 ], [ 81.61954, 28.31658, 0.0 ], [ 81.60115, 28.31744, 0.0 ], [ 81.58102, 28.31529, 0.0 ], [ 81.5619, 28.3143, 0.0 ], [ 81.54191, 28.31766, 0.0 ], [ 81.52645, 28.3275, 0.0 ], [ 81.48783, 28.35508, 0.0 ], [ 81.46948, 28.36623, 0.0 ], [ 81.45358, 28.37193, 0.0 ], [ 81.43621, 28.37301, 0.0 ], [ 81.42304, 28.37188, 0.0 ], [ 81.40758, 28.38079, 0.0 ], [ 81.39607, 28.39801, 0.0 ], [ 81.39315, 28.41287, 0.0 ], [ 81.3878, 28.42033, 0.0 ], [ 81.37274, 28.42237, 0.0 ], [ 81.35751, 28.43196, 0.0 ], [ 81.35244, 28.44998, 0.0 ], [ 81.35413, 28.46674, 0.0 ], [ 81.36651, 28.5034, 0.0 ], [ 81.37202, 28.52321, 0.0 ], [ 81.37453, 28.53815, 0.0 ], [ 81.36769, 28.55385, 0.0 ], [ 81.35349, 28.56278, 0.0 ], [ 81.32522, 28.57442, 0.0 ], [ 81.29242, 28.59125, 0.0 ], [ 81.27925, 28.59995, 0.0 ], [ 81.2441, 28.60642, 0.0 ], [ 81.2207, 28.60897, 0.0 ], [ 81.20312, 28.61734, 0.0 ], [ 81.17647, 28.63586, 0.0 ], [ 81.15607, 28.65312, 0.0 ], [ 81.13583, 28.67404, 0.0 ], [ 81.11884, 28.6893, 0.0 ], [ 81.09844, 28.70562, 0.0 ] ] ], [ [ [ 88.15887, 26.64257, 0.0 ], [ 88.15785, 26.64031, 0.0 ], [ 88.16034, 26.63679, 0.0 ], [ 88.15801, 26.63619, 0.0 ], [ 88.15724, 26.63306, 0.0 ], [ 88.15415, 26.63049, 0.0 ], [ 88.14817, 26.62984, 0.0 ], [ 88.14631, 26.63553, 0.0 ], [ 88.1508, 26.64551, 0.0 ], [ 88.15918, 26.65675, 0.0 ], [ 88.16301, 26.6755, 0.0 ], [ 88.1675, 26.69327, 0.0 ], [ 88.16757, 26.68772, 0.0 ], [ 88.16694, 26.68637, 0.0 ], [ 88.16771, 26.68422, 0.0 ], [ 88.16394, 26.67875, 0.0 ], [ 88.1648, 26.67051, 0.0 ], [ 88.16285, 26.65202, 0.0 ], [ 88.16293, 26.64622, 0.0 ], [ 88.16057, 26.64278, 0.0 ], [ 88.15887, 26.64257, 0.0 ] ] ] ] } }
]
}
