{
  "type": "FeatureCollection",
  "features": [
    {
      "type": "Feature",
      "properties": {
        "S_N": 1,
        "Name_of_Organization": "FECOFUN Kavre",
        "Location": "Tindobato-8, Banepa, Kavre",
        "Type_of_Grant": "LoA",
        "Commodities": "Timur (Sichuan Pepper)- Production Upscaling through agroforestry"
      },
      "geometry": null
    },
    {
      "type": "Feature",
      "properties": {
        "S_N": 2,
        "Name_of_Organization": "Aadhar Ekata  Mahila Samuha",
        "Location": "Khopasi-10, Panauti, Kavre",
        "Type_of_Grant": "LoA",
        "Commodities": "Pesticide free vegetables by women group - Production"
      },
      "geometry": {
        "type": "Point",
        "coordinates": [
          85.5272947507264,
          27.5759480219402
        ]
      }
    },
    {
      "type": "Feature",
      "properties": {
        "S_N": 3,
        "Name_of_Organization": "AFFON (Association of Family Forest Owners Nepal)",
        "Location": "Shantinagar-31, Kathmandu, Nepal",
        "Type_of_Grant": "LoA",
        "Commodities": "Timur (Sichuan Pepper)- Production Upscaling through agroforestry"
      },
      "geometry": {
        "type": "Point",
        "coordinates": [
          85.3415015831458,
          27.6902488778735
        ]
      }
    },
    {
      "type": "Feature",
      "properties": {
        "S_N": 4,
        "Name_of_Organization": "Ashmita Nepal",
        "Location": "Hetauda-4 School Road, Makwanpur",
        "Type_of_Grant": "LoA",
        "Commodities": "Sal leaf plate: Community Forest based enterprise"
      },
      "geometry": {
        "type": "Point",
        "coordinates": [
          85.0339013254682,
          27.429166330732
        ]
      }
    },
    {
      "type": "Feature",
      "properties": {
        "S_N": 5,
        "Name_of_Organization": "NFGF (National Farmer Group Federation)",
        "Location": "Nayabazar-17, Kathmandu",
        "Type_of_Grant": "LoA",
        "Commodities": "Safe vegetable production"
      },
      "geometry": {
        "type": "Point",
        "coordinates": [
          86.4777685254509,
          26.7140205357528
        ]
      }
    },
    {
      "type": "Feature",
      "properties": {
        "S_N": 6,
        "Name_of_Organization": "CDCAN (Central Dairy Cooperative Association Ltd. Nepal )",
        "Location": "Baneswor-31, Kathmandu",
        "Type_of_Grant": "LoA",
        "Commodities": "Dairy agroforestry (GMP)"
      },
      "geometry": {
        "type": "Point",
        "coordinates": [
          85.3405557101326,
          27.6893523799411
        ]
      }
    },
    {
      "type": "Feature",
      "properties": {
        "S_N": 7,
        "Name_of_Organization": "Green Foundation Nepal / Shree Kalika Malika Kissan Jaluke CFUG",
        "Location": "Baneshwor, Shantinagar gate, Babuchiring marg",
        "Type_of_Grant": "LoA",
        "Commodities": "Bamboo handicraft and grass handicraft of Tharu community"
      },
      "geometry": {
        "type": "Point",
        "coordinates": [
          85.3319141297342,
          27.6845512561989
        ]
      }
    },
    {
      "type": "Feature",
      "properties": {
        "S_N": 8,
        "Name_of_Organization": "Jagaran Community Development Center / Madhyabindu Lemon, Fruits and Vegetable Production Farmer Group",
        "Location": "Kathmandu Office: Kathmandu-35, Koteshwor, Sahayoginagar Marga           Nawalpur Office: Madhyavindu-8, Nawalpur",
        "Type_of_Grant": "LoA",
        "Commodities": "Lime production and processing- Pickle"
      },
      "geometry": {
        "type": "Point",
        "coordinates": [
          84.0186122254726,
          27.6062745463966
        ]
      }
    },
    {
      "type": "Feature",
      "properties": {
        "S_N": 9,
        "Name_of_Organization": "Mount Everest Forest Botanicals Alliance",
        "Location": "Lamptangin Marg, Maharajgunj-3, Kathmandu, Nepal",
        "Type_of_Grant": "LoA",
        "Commodities": "Chiuri butter- with resotraiton in leasehold forestry group"
      },
      "geometry": {
        "type": "Point",
        "coordinates": [
          85.336468360232,
          27.7407932042881
        ]
      }
    },
    {
      "type": "Feature",
      "properties": {
        "S_N": 10,
        "Name_of_Organization": "Kanaihya Farmer Group",
        "Location": "Kawasoti Municipality- 17 Nawalpur, Nepal",
        "Type_of_Grant": "LoA",
        "Commodities": "Climate change firendly sustainable practices"
      },
      "geometry": null
    },
    {
      "type": "Feature",
      "properties": {
        "S_N": 11,
        "Name_of_Organization": "Bungdal CFUG (Makawanpur)",
        "Location": "Makawanpur Rural Municipality - 5, Bungdhal",
        "Type_of_Grant": "LoA",
        "Commodities": "Turmeric (community forest)"
      },
      "geometry": null
    },
    {
      "type": "Feature",
      "properties": {
        "S_N": 12,
        "Name_of_Organization": "Shree Shuvakamana Community Development Organization / Banganga Women Apiculture Farmer Group",
        "Location": "Pokhara-15, Birauta Kaski",
        "Type_of_Grant": "LoA",
        "Commodities": "Honey (Eomen Honey Producer Group)"
      },
      "geometry": null
    },
    {
      "type": "Feature",
      "properties": {
        "S_N": 13,
        "Name_of_Organization": "Shree Shiva CFUG",
        "Location": "Nawalpur District, Kawaswoti Municipality - 2",
        "Type_of_Grant": "LoA",
        "Commodities": "Tejpat/ Cinnamomum tamala tree -CF"
      },
      "geometry": null
    },
    {
      "type": "Feature",
      "properties": {
        "S_N": 14,
        "Name_of_Organization": "Rastriya Dalit Network",
        "Location": "Dhangadhi- 01, Kailali",
        "Type_of_Grant": "LoA",
        "Commodities": "Fisheries (marginalised  dalit community producer group)"
      },
      "geometry": {
        "type": "Point",
        "coordinates": [
          80.5997657678294,
          28.7064710691128
        ]
      }
    },
    {
      "type": "Feature",
      "properties": {
        "S_N": 15,
        "Name_of_Organization": "Dangdunge CFUG (Makawanpur)",
        "Location": "Makawanpur District, Hetauda Sub-metropolitan City - 11",
        "Type_of_Grant": "LoA",
        "Commodities": "Safe agri production linked with community nursery"
      },
      "geometry": {
        "type": "Point",
        "coordinates": [
          85.03782683454,
          27.435858067419
        ]
      }
    },
    {
      "type": "Feature",
      "properties": {
        "S_N": 19,
        "Name_of_Organization": "Community Rural Development Society Nepal",
        "Location": "Mahakali Municpality, Khalanga, Darchula, Nepal",
        "Type_of_Grant": "LoA",
        "Commodities": "Essential Oil"
      },
      "geometry": {
        "type": "Point",
        "coordinates": [
          80.5395794543661,
          29.8426482535049
        ]
      }
    },
    {
      "type": "Feature",
      "properties": {
        "S_N": 21,
        "Name_of_Organization": "National Farmer Group Federation",
        "Location": "Baneshwor, Kathmandu, Nepal",
        "Type_of_Grant": "LoA",
        "Commodities": "PGS- Safe agri. products"
      },
      "geometry": {
        "type": "Point",
        "coordinates": [
          86.4777685254509,
          26.7139438664866
        ]
      }
    },
    {
      "type": "Feature",
      "properties": {
        "S_N": 22,
        "Name_of_Organization": "Parbatphedi Srijana Yova Club",
        "Location": "Dasrathchand Muicipality, Baidtai, Nepal",
        "Type_of_Grant": "LoA",
        "Commodities": "NTFP - lemon grass and mentha"
      },
      "geometry": {
        "type": "Point",
        "coordinates": [
          80.4247404966873,
          29.5549105963467
        ]
      }
    },
    {
      "type": "Feature",
      "properties": {
        "S_N": 23,
        "Name_of_Organization": "Women Rights and Resources Network",
        "Location": "Baneshwor, Kathmandu, Nepal",
        "Type_of_Grant": "LoA",
        "Commodities": "NTFP (essential oil and turmeric)"
      },
      "geometry": {
        "type": "Point",
        "coordinates": [
          85.3317540101325,
          27.6838556886585
        ]
      }
    },
    {
      "type": "Feature",
      "properties": {
        "S_N": 24,
        "Name_of_Organization": "Green Foundation Nepal (GFN)",
        "Location": "Babuchiring Marga, Kathmandu - 31, Shantinagar, Nepal",
        "Type_of_Grant": "LoA",
        "Commodities": "Bamboo handicraft and grass handicraft of Tharu community"
      },
      "geometry": {
        "type": "Point",
        "coordinates": [
          85.3317746524614,
          27.683895689914
        ]
      }
    },
    {
      "type": "Feature",
      "properties": {
        "S_N": 25,
        "Name_of_Organization": "Institute of Himalayan Risk Reduction (IHHR)",
        "Location": "Lalitpur Metropolitan City, Ward No-1, Kupandol",
        "Type_of_Grant": "LoA",
        "Commodities": "NTFP - harro, barro, lemon grass, amala"
      },
      "geometry": {
        "type": "Point",
        "coordinates": [
          85.3122618101326,
          27.6876845833218
        ]
      }
    },
    {
      "type": "Feature",
      "properties": {
        "S_N": 26,
        "Name_of_Organization": "SAMUDAYIC BIKASH TATHA SACHETA - Community Development & Awareness Nepal (CDA)- Piple Pokhara",
        "Location": "Hetauda-4, Bhairabroad, Makawanpur(CDA) Bhairabroad, Makawanpur",
        "Type_of_Grant": "LoA",
        "Commodities": "Wooden Handicraft"
      },
      "geometry": null
    },
    {
      "type": "Feature",
      "properties": {
        "S_N": 27,
        "Name_of_Organization": "SHREE SHIVASHAKTI KRISHI SAHAKARI (Shree Shivashakti Krishi Sahakari, Limited)",
        "Location": "Bhimphedi-7,Makawanpur",
        "Type_of_Grant": "LoA",
        "Commodities": "PGS certified agri. products"
      },
      "geometry": {
        "type": "Point",
        "coordinates": [
          83.9809023966527,
          28.228162174753
        ]
      }
    },
    {
      "type": "Feature",
      "properties": {
        "S_N": 28,
        "Name_of_Organization": "SAMUDAYA BATAWARAN TATHA BAL BIKASH SANGH {Organization for Community Child and Environment Development (OCCED)}",
        "Location": "",
        "Type_of_Grant": "LoA",
        "Commodities": "Medicinal and Aromatic Plants"
      },
      "geometry": null
    },
    {
      "type": "Feature",
      "properties": {
        "S_N": 29,
        "Name_of_Organization": "NIWF (National Indigenous Women Forum)",
        "Location": "Ward no 32, Kathmandu Metropolitan City, Kathmandu, Nepal",
        "Type_of_Grant": "LoA",
        "Commodities": "NTFP - Chiuri Soap and fruit-based pickle"
      },
      "geometry": {
        "type": "Point",
        "coordinates": [
          85.3628287078818,
          27.6920091323372
        ]
      }
    },
    {
      "type": "Feature",
      "properties": {
        "S_N": 30,
        "Name_of_Organization": "Sustainable Research and Development Center (SRDC)",
        "Location": "Kathmandu Metropolitan City-4, Maharajgunj, Kathmandu, Nepal",
        "Type_of_Grant": "LoA",
        "Commodities": "NTFP -Harro, Barro, and Amala"
      },
      "geometry": null
    },
    {
      "type": "Feature",
      "properties": {
        "S_N": 31,
        "Name_of_Organization": "Phulabari Community Forestry Users Group (PUFUG)",
        "Location": "Banganga Municipality-7, Motipur, Kapilvastu, Nepal",
        "Type_of_Grant": "LoA",
        "Commodities": "NTFP - turmeric, moringa and other horticulture spp."
      },
      "geometry": {
        "type": "Point",
        "coordinates": [
          83.1282170678037,
          27.6958743665027
        ]
      }
    },
    {
      "type": "Feature",
      "properties": {
        "S_N": 32,
        "Name_of_Organization": "Bungdal Samudayeik ban Upabhokta Samuha (Bungdal Community Forest User Group) (BCFUG)",
        "Location": "Makwanpur, Gadhi rural municipality-5, Bagmati Province, Nepal",
        "Type_of_Grant": "LoA",
        "Commodities": "Turmeric (community forest)"
      },
      "geometry": null
    },
    {
      "type": "Feature",
      "properties": {
        "S_N": 33,
        "Name_of_Organization": "Binayi Samudayik Ban Upobhokta Samu (BSBUS)",
        "Location": "Binayi Triveni Rural Municipality-1, Dumkibas Nawalparasi, NepaL",
        "Type_of_Grant": "LoA",
        "Commodities": "Fertiliser"
      },
      "geometry": {
        "type": "Point",
        "coordinates": [
          83.8659763966365,
          27.5819630378295
        ]
      }
    },
    {
      "type": "Feature",
      "properties": {
        "S_N": 34,
        "Name_of_Organization": "National Farmer Group Federation (NFGF), Nepal",
        "Location": "Baneshwor, Kathmandu, Nepal",
        "Type_of_Grant": "LoA",
        "Commodities": "PGS certified agri. products"
      },
      "geometry": {
        "type": "Point",
        "coordinates": [
          86.4777041524378,
          26.713963033808
        ]
      }
    },
    {
      "type": "Feature",
      "properties": {
        "S_N": 35,
        "Name_of_Organization": "Belapakha Samudayik Ban Upabhokta Samuha (BSBUS)",
        "Location": "Ward 10 Panchkhhal Municipality, Kavrepalanchowk, Nepal.",
        "Type_of_Grant": "LoA",
        "Commodities": "Timur (Sichuan Pepper)- Production Upscaling through agroforestry"
      },
      "geometry": null
    },
    {
      "type": "Feature",
      "properties": {
        "S_N": 38,
        "Name_of_Organization": "Sakriya Mahila Krishi Sahakari Sanstha Limited (SMKSSL)",
        "Location": "Panauti Municipality-8, Kavrepalanchok, Bagmati Province, Nepal",
        "Type_of_Grant": "DBG",
        "Commodities": "Agriculture products value addition"
      },
      "geometry": {
        "type": "Point",
        "coordinates": [
          85.5080159217063,
          27.5935941972749
        ]
      }
    },
    {
      "type": "Feature",
      "properties": {
        "S_N": 39,
        "Name_of_Organization": "Pasupati Samudayik Ban Upobhokta Samuha (PSBUS)",
        "Location": "Manahari Rural Municipality- 7, Makawanpur, Bagmati Province, Nepal",
        "Type_of_Grant": "DBG",
        "Commodities": "Saw mill"
      },
      "geometry": null
    },
    {
      "type": "Feature",
      "properties": {
        "S_N": 40,
        "Name_of_Organization": "Himawanti Nepal (HN)                      Risheshwor Mahila Allo Kapada Utpadan Udhyog, located in Thaha Municipality-4, Makwanpur district",
        "Location": "Jwagal-10, Kupondole,Lalitpur  Metropolitan City,  Bagmati Province, Nepal",
        "Type_of_Grant": "DBG",
        "Commodities": "Allo (Himalayan nettle)"
      },
      "geometry": {
        "type": "Point",
        "coordinates": [
          85.3208788273232,
          27.6846382855821
        ]
      }
    },
    {
      "type": "Feature",
      "properties": {
        "S_N": 41,
        "Name_of_Organization": "Hamro Rajakot Bahuuddeshye Sahakari Sanstha Limited (HRBSSL)",
        "Location": "Dangisaran Rural Municipality-2, Kalamkhola, Dang Lumbini Province, Nepal",
        "Type_of_Grant": "DBG",
        "Commodities": "Leaflate, wooven basket"
      },
      "geometry": null
    },
    {
      "type": "Feature",
      "properties": {
        "S_N": 42,
        "Name_of_Organization": "Aadhunik Krishi Sahakari Limited (AKSL)",
        "Location": "Dangisaran Rural Municipality-2, Kalamkhola, Dang Lumbini Province, Nepal",
        "Type_of_Grant": "DBG",
        "Commodities": "Biodegradable packaging materials"
      },
      "geometry": null
    },
    {
      "type": "Feature",
      "properties": {
        "S_N": 44,
        "Name_of_Organization": "Hile Jaljale “Ka” Samudayik Ban Upabhokta Samuha (HileJaljale CFUG)",
        "Location": "Banepa-2, Kavrepalanchok, Bagmati Province Nepal",
        "Type_of_Grant": "LoA",
        "Commodities": "Furniture (Timber)"
      },
      "geometry": null
    },
    {
      "type": "Feature",
      "properties": {
        "S_N": 45,
        "Name_of_Organization": "Piple Pokhara S.B.U.S (Piple-Pokhara CFUG)",
        "Location": "Hetauda Sub-Metropolitan City-5, Makawanpur, Bagmati Province,",
        "Type_of_Grant": "LoA",
        "Commodities": "Handicrafts"
      },
      "geometry": null
    },
    {
      "type": "Feature",
      "properties": {
        "S_N": 46,
        "Name_of_Organization": "Chuchchekhola Samudayik Ban U. Samu (Chuchchekhola CFUG)",
        "Location": "Makawanpur, Hetauda Sub-metropolitan city-6,17 and Makawanpurgadhi Rural Municipality ward no. 2 and 3, Bagmati Province, Nepal",
        "Type_of_Grant": "LoA",
        "Commodities": "Furniture (Timber)"
      },
      "geometry": null
    },
    {
      "type": "Feature",
      "properties": {
        "S_N": 47,
        "Name_of_Organization": "Jaldevi Samudayik Ban Upbhokta Samuha (Jaldevi CFUG)",
        "Location": "Bharatpur Metropolitan City- 2, Chitwan, Bagmati Province, Nepal",
        "Type_of_Grant": "LoA",
        "Commodities": "Honey"
      },
      "geometry": null
    },
    {
      "type": "Feature",
      "properties": {
        "S_N": 48,
        "Name_of_Organization": "Ratu Mahila Samuhik Ban U. Samuh (Ratu Mahila CFUG)",
        "Location": "Bardibas Municipality-3, Mahottari, Madhesh Province, Nepal",
        "Type_of_Grant": "LoA",
        "Commodities": "Handicraft"
      },
      "geometry": {
        "type": "Point",
        "coordinates": [
          85.9176877254585,
          27.0293921171693
        ]
      }
    },
    {
      "type": "Feature",
      "properties": {
        "S_N": 49,
        "Name_of_Organization": "KEMLIPUR C.F.U.G. MI.NA.PA.07 (Kemalipur CFUG)",
        "Location": "Mithila Municipality-7, Kemalipur, Dhanusha, Madhesh Province, Nepal",
        "Type_of_Grant": "LoA",
        "Commodities": "Ginger and Turmeric"
      },
      "geometry": {
        "type": "Point",
        "coordinates": [
          85.9508919307112,
          26.9509044410911
        ]
      }
    },
    {
      "type": "Feature",
      "properties": {
        "S_N": 50,
        "Name_of_Organization": "Central Livestock Co Operative Fed. Ltd. Nepal (Federation of Central Livestock Fisheries Cooperative Ltd)",
        "Location": "Dhanushadham",
        "Type_of_Grant": "LoA",
        "Commodities": "Dairy"
      },
      "geometry": {
        "type": "Point",
        "coordinates": [
          86.0427638071407,
          26.8711974413828
        ]
      }
    },
    {
      "type": "Feature",
      "properties": {
        "S_N": 51,
        "Name_of_Organization": "Samudayak Udhami Mahila Krishi Krishak Samuha",
        "Location": "Kawasoti Municipality-02, Nawalparasi (Bardaghat Susta East), Gandaki Province, Nepal",
        "Type_of_Grant": "LoA",
        "Commodities": "Bamboo Shoots (Tama)"
      },
      "geometry": {
        "type": "Point",
        "coordinates": [
          84.1329661225596,
          27.6488137309962
        ]
      }
    },
    {
      "type": "Feature",
      "properties": {
        "S_N": 52,
        "Name_of_Organization": "Aankur Aadarsha Samudayik Ban Upavo (Ankur Aadarsha CFUG)",
        "Location": "Kawasoti Municipality-16, Danda Nawalparasi (Bardhghat Sustha East), Gandaki, Nepal",
        "Type_of_Grant": "LoA",
        "Commodities": "Medicinal and Essential Oil"
      },
      "geometry": {
        "type": "Point",
        "coordinates": [
          84.1329848534391,
          27.6493573966547
        ]
      }
    },
    {
      "type": "Feature",
      "properties": {
        "S_N": 53,
        "Name_of_Organization": "Shivnagar Samudayik Ban Upabhokta Samuha (Shiv Nagar CFUG)",
        "Location": "Butwal Sub-Metropolitan City-7, 8, 9 and 11",
        "Type_of_Grant": "LoA",
        "Commodities": "Nursery"
      },
      "geometry": {
        "type": "Point",
        "coordinates": [
          83.4648466068075,
          27.7087480570886
        ]
      }
    },
    {
      "type": "Feature",
      "properties": {
        "S_N": 54,
        "Name_of_Organization": "Shankarnagar Samudayek Van Upabhokta Samuha (Shankarnagar CFUG)",
        "Location": "Tilottama Municipality-1, Rupandehi, Lumbini Province, Nepal",
        "Type_of_Grant": "LoA",
        "Commodities": "Nursery"
      },
      "geometry": {
        "type": "Point",
        "coordinates": [
          83.4692734820054,
          27.6500750439929
        ]
      }
    },
    {
      "type": "Feature",
      "properties": {
        "S_N": 55,
        "Name_of_Organization": "Sana Kishan Krishi Sahakari Sastha",
        "Location": "Haripur Municipality-2, Sarlahi, Madhesh Province, Nepal",
        "Type_of_Grant": "DBG",
        "Commodities": "Dairy Products"
      },
      "geometry": {
        "type": "Point",
        "coordinates": [
          85.5716045389516,
          27.0185959764831
        ]
      }
    },
    {
      "type": "Feature",
      "properties": {
        "S_N": 56,
        "Name_of_Organization": "Mithila Jadibuti Sahakari Sanstha Ltd",
        "Location": "Mithila Municipality-6, Dhalkebar, Madhesh Province, Nepal",
        "Type_of_Grant": "DBG",
        "Commodities": "Agroforestry products and pickle"
      },
      "geometry": {
        "type": "Point",
        "coordinates": [
          85.9508929032639,
          26.9509033232405
        ]
      }
    },
    {
      "type": "Feature",
      "properties": {
        "S_N": 57,
        "Name_of_Organization": "Sundardeep Mahila Machhapalan S.S.L",
        "Location": "Khairahani Municipality-7, Majhui, Chitwan, Bagmati Province,",
        "Type_of_Grant": "DBG",
        "Commodities": "Fisheries"
      },
      "geometry": {
        "type": "Point",
        "coordinates": [
          84.5746219550832,
          27.6198109339704
        ]
      }
    },
    {
      "type": "Feature",
      "properties": {
        "S_N": 58,
        "Name_of_Organization": "Coffee Sahakari Sangh Ltd.",
        "Location": "Chautara Sangachok Gadi Municipality – 10, Sindhupalchok,",
        "Type_of_Grant": "DBG",
        "Commodities": "Csoffee and vegetables"
      },
      "geometry": {
        "type": "Point",
        "coordinates": [
          85.7340652543108,
          27.7152806345987
        ]
      }
    },
    {
      "type": "Feature",
      "properties": {
        "S_N": 59,
        "Name_of_Organization": "Shree Korak Sana Kisan Krishi Sahakari Sanstha Ltd.",
        "Location": "Rapti Municipality-2, Kirantar, Chitwan, Bagmati Province,",
        "Type_of_Grant": "DBG",
        "Commodities": "Chiuri (Butter)"
      },
      "geometry": {
        "type": "Point",
        "coordinates": [
          84.644586148537,
          27.6011864823574
        ]
      }
    },
    {
      "type": "Feature",
      "properties": {
        "S_N": 60,
        "Name_of_Organization": "Kunchhal Krishi Sahakari Sa. Ltd.",
        "Location": "Thaha Municipality-6, Bajrabarahi, Makwanpur, Bagmati",
        "Type_of_Grant": "DBG",
        "Commodities": "Dairy Products"
      },
      "geometry": null
    },
    {
      "type": "Feature",
      "properties": {
        "S_N": 61,
        "Name_of_Organization": "Shree Chhotadanda Agriculture Cooperative",
        "Location": "Dhulikhel Municipality -09, Kavrepalanchok, Bagmati Province, Nepal",
        "Type_of_Grant": "DBG",
        "Commodities": "Nursery"
      },
      "geometry": null
    },
    {
      "type": "Feature",
      "properties": {
        "S_N": 62,
        "Name_of_Organization": "Gobardiha Kastha Tatha Furniture Udhyog",
        "Location": "Gadhawa Rural Municipality-1, Badhra, Deukhuri, Dang, Lumbini Province, Nepal",
        "Type_of_Grant": "DBG",
        "Commodities": "Furniture (Timber)"
      },
      "geometry": {
        "type": "Point",
        "coordinates": [
          82.7532650776162,
          27.8224865417059
        ]
      }
    },
    {
      "type": "Feature",
      "properties": {
        "S_N": 63,
        "Name_of_Organization": "Rajapani Community Forest User’s Group",
        "Location": "Banganga Municipality-3, Rajapani Kapilvastu, Lumbini Province, Nepal",
        "Type_of_Grant": "DBG",
        "Commodities": "Aquaculture Agroforestry"
      },
      "geometry": {
        "type": "Point",
        "coordinates": [
          83.1686351936515,
          27.6896058250228
        ]
      }
    },
    {
      "type": "Feature",
      "properties": {
        "S_N": 64,
        "Name_of_Organization": "Shree Mishreet Fish Farming Limited",
        "Location": "Madhyabindu Municipality-2, Sitapur, Nawalpur, Gandaki",
        "Type_of_Grant": "DBG",
        "Commodities": "Fisheries"
      },
      "geometry": {
        "type": "Point",
        "coordinates": [
          84.0160450208367,
          27.6187398519187
        ]
      }
    },
    {
      "type": "Feature",
      "properties": {
        "S_N": 65,
        "Name_of_Organization": "Bhatighari Samudayik Ban Upabhokta Samua",
        "Location": "Mithila Nagarpalika-4 Puspawalpur,Dhanusha",
        "Type_of_Grant": "DBG",
        "Commodities": "Turmeric"
      },
      "geometry": null
    },
    {
      "type": "Feature",
      "properties": {
        "S_N": 66,
        "Name_of_Organization": "Binayi Samudayik Ban Upobhokta Samu",
        "Location": "Binayi Triveni Rural Municipality, 1 and 9, Dumkibas, Nawalpur, Gandaki, Nepal",
        "Type_of_Grant": "DBG",
        "Commodities": "Biofertilizer"
      },
      "geometry": {
        "type": "Point",
        "coordinates": [
          83.8659763966365,
          27.5819630378295
        ]
      }
    },
    {
      "type": "Feature",
      "properties": {
        "S_N": 67,
        "Name_of_Organization": "Kendriya Dugda Sahakari Sangh LTD (Central Dairy Cooperative Association Nepal) (of Setidevi Cooperative and Deurali Dairy Cooperative)",
        "Location": "Setidevi Milk Producer Cooperative Ltd. -  Dhulikhel 2, Rabi, Kavre District, Bagmati Province, Nepal                        Deurali Dairy Cooperative - same as above location",
        "Type_of_Grant": "DBG",
        "Commodities": "Silage"
      },
      "geometry": null
    },
    {
      "type": "Feature",
      "properties": {
        "S_N": 68,
        "Name_of_Organization": "Hanuman Krishi Sahakari Sanstha LTD",
        "Location": "Bhangaha Municipality-6, Mahottari, Nepal",
        "Type_of_Grant": "DBG",
        "Commodities": "Climate Smart Farming"
      },
      "geometry": null
    },
    {
      "type": "Feature",
      "properties": {
        "S_N": 69,
        "Name_of_Organization": "Hatemalo Beekeeping Cooperative Ltd",
        "Location": "Ratnanagar-15, Chitwan",
        "Type_of_Grant": "DBG",
        "Commodities": "Honey"
      },
      "geometry": null
    },
    {
      "type": "Feature",
      "properties": {
        "S_N": 70,
        "Name_of_Organization": "Jadibuti Samrakshyan Tatha Upayog Sahakari Sanstha LTD",
        "Location": "Tinau RM-3, Jhumsa, Palpa",
        "Type_of_Grant": "DBG",
        "Commodities": "NTFP (Cinnamon)"
      },
      "geometry": null
    },
    {
      "type": "Feature",
      "properties": {
        "S_N": 71,
        "Name_of_Organization": "National Farmers Group Federation Nepal (of Shivashakti Krishi Sahakari, Jyoti Samajik Udhyami Mahila Sahakari, Digo Niji Banjanya Upaj Tatha Krishi Sahakari)",
        "Location": "Madesh and Bagmati",
        "Type_of_Grant": "DBG",
        "Commodities": "Safe Vegetable Production - PGS"
      },
      "geometry": null
    },
    {
      "type": "Feature",
      "properties": {
        "S_N": 72,
        "Name_of_Organization": "Our Rajakot Multi-Purpose Cooperative Society Limited.",
        "Location": "Dangisharan Rural Municipality-2, Kalamkhola, Dang, Nepal",
        "Type_of_Grant": "DBG",
        "Commodities": "Dhakiya and Sal Leaf Plate"
      },
      "geometry": null
    }
  ],
  "name": "Grantees"
}